CSS (TIANHE)            
1 48274U 21035A   26195.18938242  .00000775  00000+0  14292-4 0  9996
2 48274  41.4690 157.9320 0002447 303.4143  56.6460 15.58062507297388
